CBERS 4                 
1 40336U 14079A   20167.15762018 -.00000005  00000-0  13554-4 0  9991
2 40336  98.5615 238.8312 0001850  95.6180 264.5221 14.35414003289356
CZ-4B R/B               
1 40337U 14079B   20166.66937751  .00000094  00000-0  14197-4 0  9996
2 40337  98.4595  52.1848 0175900 318.1716  40.6166 14.89378094299967
